SL-14 R/B               
1 16496U 86006B   26068.99149095  .00000811  00000+0  83830-4 0  9999
2 16496  82.5234 259.4531 0075050 271.7582  87.5040 14.86815340149255
COSMOS 1743             
1 16719U 86034A   26069.09149231  .00036090  00000+0  46990-3 0  9995
2 16719  82.5297  73.4092 0001648 291.0253  69.0827 15.58576552180319
SL-14 R/B               
1 16792U 86046B   26069.07674719  .00000562  00000+0  61966-4 0  9997
2 16792  82.4784  79.8160 0021998 223.9980 135.9486 14.85590716126464
SL-14 R/B               
1 16882U 86055B   26069.13376914  .00000499  00000+0  54744-4 0  9995
2 16882  82.5201 126.2569 0018152 334.9966  54.8272 14.85643046119430
AJISAI (EGS)            
1 16908U 86061A   26069.28191935 -.00000100  00000+0 -16663-4 0  9994
2 16908  50.0087  91.5264 0011270 288.5317 159.9773 12.44515637468072
SL-14 R/B               
1 17567U 87024B   26069.11000692  .00000540  00000+0  58787-4 0  9996
2 17567  82.5247  92.3686 0016687 258.3974 101.5369 14.86132444 88194
COSMOS 1833             
1 17589U 87027A   26069.14343509 -.00000178  00000+0 -69432-4 0  9991
2 17589  70.9223 325.0654 0024249 213.9072 146.0500 14.13054713 10382
SL-16 R/B               
1 17590U 87027B   26068.97462516  .00000094  00000+0  70274-4 0  9994
2 17590  71.0012 275.8951 0003434 142.0630 218.0736 14.17165848 15381
SL-14 R/B               
1 17912U 87038B   26069.10519817  .00000515  00000+0  56876-4 0  9997
2 17912  82.5000 296.4165 0019718 159.1105 201.0922 14.85369670 79290
COSMOS 1844             
1 17973U 87041A   26069.24884022 -.00000153  00000+0 -54056-4 0  9994
2 17973  70.9000  32.9951 0030053  16.9095 343.3021 14.14552061  3665
SL-14 R/B               
1 18153U 87055B   26069.21675502  .00000698  00000+0  77508-4 0  9997
2 18153  82.5031 348.5347 0021120  16.0845 344.1037 14.85630376 70016
COSMOS 1867             
1 18187U 87060A   26069.07002527 -.00000006  00000+0  35470-4 0  9991
2 18187  65.0112 305.6406 0014491 278.6825  81.2618 14.31503117 19993
SL-14 R/B               
1 18749U 88001B   26069.27945726  .00000751  00000+0  83990-4 0  9996
2 18749  82.5154 194.8055 0016884 233.6625 126.3034 14.85528783 42110
COSMOS 1933             
1 18958U 88020A   26068.98787396  .00005456  00000+0  26704-3 0  9999
2 18958  82.5099 250.6165 0003889 179.4011 180.7228 15.17985258 50275
SL-3 R/B                
1 19046U 88032B   26069.25923697  .00006519  00000+0  30424-3 0  9993
2 19046  97.5196  52.5081 0024464 229.3517 130.5591 15.19918694 52193
SL-16 R/B               
1 19120U 88039B   26069.26215693 -.00000044  00000+0  20088-5 0  9999
2 19120  71.0134  67.3368 0022822 333.5129  26.4828 14.19615424958465
COSMOS 1953             
1 19210U 88050A   26069.28027608  .00009858  00000+0  35306-3 0  9999
2 19210  82.5103 157.6532 0012476 120.5410 239.7063 15.28540132 37872
